METAR KBOS 011354Z 26017G28KT 10SM FEW035 FEW250 11/M01 A2971 RMK AO2 PK WND 28030/1328 SLP061 T01061006 $
TAF KBOS 011120Z 0112/0218 27018G30KT P6SM FEW035 
  FM011700 27016G25KT P6SM SCT040 
  FM012300 29013G23KT P6SM FEW100 
  FM020300 29009KT P6SM FEW250
METAR KMCI 011353Z 30007KT 10SM SCT039 SCT110 03/00 A3016 RMK AO2 SLP215 T00330000 $
TAF KMCI 011123Z 0112/0212 29006KT P6SM BKN150 
  FM011600 33010KT P6SM SCT028 OVC035 
  FM011800 33010KT P6SM BKN045 
  FM012200 33007KT P6SM SCT050
METAR KORD 011351Z 23005KT 10SM BKN070 06/02 A3002 RMK AO2 SLP169 T00560022 $
TAF KORD 011121Z 0112/0218 27007KT P6SM SCT040 OVC070 
  FM012300 35008KT P6SM -SHRA SCT025 BKN035 
  PROB30 0123/0204 3SM -SHRA BR BKN020 
  FM020700 35006KT P6SM SCT025 BKN035 
  FM021400 22007KT P6SM FEW030 SCT300