METAR EPGD 011400Z 16007KT CAVOK 10/06 Q1014
TAF EPGD 011130Z 0112/0212 16010KT CAVOK 
  PROB40 
  TEMPO 0121/0201 3000 BR 
  BECMG 0201/0204 25006KT -RA BKN005 
  TEMPO 0201/0206 3000 -RA BR BKN002 
  PROB40 
  TEMPO 0203/0210 0800 FG BKN001 
  TEMPO 0206/0212 2000 BR BKN002
METAR EPKK 011400Z 06006KT CAVOK 17/08 Q1016
TAF EPKK 011430Z 0115/0215 05005KT CAVOK 
  TEMPO 0121/0206 3000 BR 
  PROB30 
  TEMPO 0200/0205 1200 BR
METAR EPWA 011400Z 13008KT 9999 BKN040 13/05 Q1017 NOSIG
TAF EPWA 011430Z 0115/0215 13010KT 9999 SCT040 
  BECMG 0200/0203 VRB02KT 