METAR EGLL 011420Z AUTO 23018KT 9999 -RA BKN036/// BKN047/// //////TCU 14/07 Q1003