METAR KMCI 011353Z 30007KT 10SM SCT039 SCT110 03/00 A3016 RMK AO2 SLP215 T00330000 $
TAF KMCI 011123Z 0112/0212 29006KT P6SM BKN150 
  FM011600 33010KT P6SM SCT028 OVC035 
  FM011800 33010KT P6SM BKN045 
  FM012200 33007KT P6SM SCT050